[{"OBJECT_NAME":"LYNK TOWER 4","OBJECT_ID":"2023-001AB","EPOCH":"2026-03-09T16:15:30.644928","MEAN_MOTION":15.31819885,"ECCENTRICITY":0.00103213,"INCLINATION":97.3324,"RA_OF_ASC_NODE":128.594,"ARG_OF_PERICENTER":112.3386,"MEAN_ANOMALY":247.895,"EPHEMERIS_TYPE":0,"CLASSIFICATION_TYPE":"U","NORAD_CAT_ID":55034,"ELEMENT_SET_NO":999,"REV_AT_EPOCH":17658,"BSTAR":0.00030013829,"MEAN_MOTION_DOT":9.16e-5,"MEAN_MOTION_DDOT":0},{"OBJECT_NAME":"STARLINK-35697","OBJECT_ID":"2025-265Z","EPOCH":"2026-03-08T15:16:26.826240","MEAN_MOTION":15.27606942,"ECCENTRICITY":5.195e-5,"INCLINATION":43.0008,"RA_OF_ASC_NODE":283.7659,"ARG_OF_PERICENTER":280.301,"MEAN_ANOMALY":79.7783,"EPHEMERIS_TYPE":0,"CLASSIFICATION_TYPE":"U","NORAD_CAT_ID":66539,"ELEMENT_SET_NO":999,"REV_AT_EPOCH":1695,"BSTAR":0.0017651219,"MEAN_MOTION_DOT":0.00048671,"MEAN_MOTION_DDOT":0}]
